KUIPER-00167            
1 65780U 25217U   25293.56528452  .00024171  00000+0  69286-3 0  9999
2 65780  51.8686 321.6115 0005641 183.8002 176.2942 15.35754139  3860
KUIPER-00168            
1 65781U 25217V   25293.66649229  .00055502  00000+0  14842-2 0  9996
2 65781  51.8736 320.7980 0002158  61.3597 298.7607 15.37519773  3881
KUIPER-00169            
1 65782U 25217W   25293.87433857  .00057336  00000+0  15698-2 0  9995
2 65782  51.8733 319.9382 0002894 143.6880 216.4303 15.36774408  3912
KUIPER-00170            
1 65783U 25217X   25293.49862408  .00053138  00000+0  14995-2 0  9997
2 65783  51.8675 321.9135 0006161 176.0344 184.0692 15.35852752  3855
KUIPER-00171            
1 65784U 25217Y   25293.55504606  .00032766  00000+0  91428-3 0  9999
2 65784  51.8688 321.5453 0004204 165.8776 194.2329 15.36436816  3861
KUIPER-00172            
1 65785U 25217Z   25293.86747973  .00029219  00000+0  79761-3 0  9995
2 65785  51.8736 319.8936 0002508 110.0896 250.0361 15.37183536  3914
KUIPER-00173            
1 65786U 25217AA  25293.87114937  .00069148  00000+0  18745-2 0  9994
2 65786  51.8721 319.9183 0002755 122.1042 238.0212 15.36998410  3910
KUIPER-00174            
1 65787U 25217AB  25293.79823668  .00049882  00000+0  13426-2 0  9998
2 65787  51.8738 320.1789 0002702  76.5546 283.5742 15.37365911  3905
